HAIYANG 2A              
1 37781U 11043A   16048.45544078  .00000359  00000-0  39302-3 0  9998
2 37781  99.3423  61.0579 0000849 134.9441 225.1785 13.79304899227041
RASAT                   
1 37791U 11044D   16048.43736081  .00000276  00000-0  61189-4 0  9992
2 37791  98.1501 139.4826 0021297 206.3566 153.6554 14.64490708240676
MEGHA-TROPIQUES         
1 37838U 11058A   16047.82531478  .00000405  00000-0  79641-4 0  9990
2 37838  19.9764 201.0695 0009687 128.9491 231.1777 14.09695272224397
SRMSAT                  
1 37841U 11058D   16047.80673304  .00000383  00000-0  65702-4 0  9995
2 37841  19.9708 191.1892 0011843 138.4682   8.0599 14.10524773224530
YAOGAN 13               
1 37941U 11072A   16048.50890691  .00004564  00000-0  22911-3 0  9999
2 37941  97.4642 336.4357 0000567 115.1379 359.8086 15.17800926233987
PLEIADES 1A             
1 38012U 11076F   16048.43791582  .00000230  00000-0  59306-4 0  9999
2 38012  98.1690 124.4467 0001326  75.4539 284.6811 14.58565030222050
ZIYUAN 1-02C (ZY 1-02C) 
1 38038U 11079A   16048.42533945  .00000173  00000-0  75098-4 0  9998
2 38038  98.4029 120.5480 0001723  98.0804 262.0577 14.35417150217817
ZIYUAN 3 (ZY 3)         
1 38046U 12001A   16048.52038367  .00004146  00000-0  18770-3 0  9999
2 38046  97.3404 122.5752 0000968  90.4135   5.8185 15.21426686228111
RISAT 1                 
1 38248U 12017A   16048.43038193  .00001743  00000-0  11434-3 0  9997
2 38248  97.5637  56.8041 0003034 268.1194 227.9133 15.08975987209983
ARIRANG-3 (KOMPSAT-3)   
1 38338U 12025B   16048.37503817  .00000354  00000-0  80960-4 0  9997
2 38338  98.1528 347.0478 0011095  55.4219 304.8019 14.61366339200228
KANOPUS-V 1             
1 38707U 12039A   16048.48705470  .00003485  00000-0  16487-3 0  9993
2 38707  97.4692 326.4443 0001824  82.5300   4.0001 15.20029154198285
SPOT 6                  
1 38755U 12047A   16048.38622880  .00000205  00000-0  54034-4 0  9995
2 38755  98.1989 117.1605 0001590  88.3103 271.8278 14.58560550183122
PLEIADES 1B             
1 39019U 12068A   16048.40386053  .00000223  00000-0  57646-4 0  9996
2 39019  98.1746 124.4619 0001305  82.9996 277.1354 14.58568056170902
GOKTURK 2               
1 39030U 12073A   16048.39613437  .00000231  00000-0  51163-4 0  9999
2 39030  98.0484 303.7538 0013246 219.1735 140.8498 14.65640025169208
LANDSAT 8               
1 39084U 13008A   16048.32136320  .00000309  00000-0  78540-4 0  9995
2 39084  98.1995 119.8128 0001225  91.5713 268.5626 14.57126352160292
SARAL                   
1 39086U 13009A   16048.16179110  .00000098  00000-0  52336-4 0  9994
2 39086  98.5405 237.2916 0001022  43.5022 316.6242 14.32251714155544
GAOFEN 1                
1 39150U 13018A   16048.48357532  .00000488  00000-0  77256-4 0  9998
2 39150  97.9834 132.6347 0018476 176.8964 183.2368 14.76488900151570
VNREDSAT 1              
1 39160U 13021B   16048.44680410  .00000386  00000-0  84451-4 0  9995
2 39160  98.1270 126.8151 0001502  89.5460 270.5919 14.62960617148583
ARIRANG-5 (KOMPSAT-5)   
1 39227U 13042A   16048.49413936 -.00000253  00000-0 -13777-4 0  9992
2 39227  97.6002 235.1202 0001868  56.9449  27.0830 15.04528878136664
SKYSAT-1                
1 39418U 13066C   16048.21823410  .00000995  00000-0  88951-4 0  9999
2 39418  97.7350 130.5800 0022559 113.2982 247.0622 14.97991944122313
DUBAISAT-2              
1 39419U 13066D   16048.43288695  .00001507  00000-0  14954-3 0  9995
2 39419  97.7266 124.9243 0015611  87.1215 273.1811 14.93149146122008
GPM-CORE                
1 39574U 14009C   16047.55274764  .00017787  00000-0  25662-3 0  9994
2 39574  65.0129 134.7578 0010308 256.5676 103.4322 15.56042597111829
SENTINEL-1A             
1 39634U 14016A   16048.43003668 -.00000207  00000-0 -34185-4 0  9992
2 39634  98.1815  56.9971 0001255  75.9135 284.2209 14.59196961 99858
KAZEOSAT 1              
1 39731U 14024A   16048.42297531  .00000163  00000-0  63241-4 0  9996
2 39731  98.4605 126.9287 0001217  87.6002 272.5326 14.41983700 94889
ALOS-2                  
1 39766U 14029A   16048.44353609 -.00000026  00000-0  33748-5 0  9999
2 39766  97.9205 146.7596 0001535  95.9657 264.1751 14.79471061 93781
KAZEOSAT 2              
1 40010U 14033A   16048.42755022  .00000406  00000-0  57743-4 0  9992
2 40010  97.9349 309.6082 0018651  59.2179 301.0860 14.82061959 89998
HODOYOSHI-4             
1 40011U 14033B   16048.43181803  .00000762  00000-0  10566-3 0  9990
2 40011  97.9308 307.5259 0028298  50.1655 310.2033 14.80595679 89874
DEIMOS-2                
1 40013U 14033D   16048.40560385  .00001037  00000-0  12946-3 0  9995
2 40013  97.9200 310.7110 0002452  91.2668 268.8801 14.84520111 90127
HODOYOSHI-3             
1 40015U 14033F   16048.26809953  .00000856  00000-0  12456-3 0  9992
2 40015  97.9267 304.7424 0038434  49.9149 310.5420 14.77968490 89696
SPOT 7                  
1 40053U 14034A   16048.48809974 -.00000046  00000-0  00000+0 0  9992
2 40053  98.2142 116.9000 0001280 104.6382 255.4959 14.58544551 87075
SKYSAT-2                
1 40072U 14037D   16048.45570676  .00000586  00000-0  83541-4 0  9991
2 40072  98.3343 134.8076 0006772 160.0434 200.1041 14.80758526 87092
WORLDVIEW-3 (WV-3)      
1 40115U 14048A   16048.38648569  .00000609  00000-0  77380-4 0  9990
2 40115  97.9117 127.3228 0001867  96.4361 263.7074 14.85173263 82013
YAOGAN 21               
1 40143U 14053A   16048.45134436  .00005828  00000-0  23617-3 0  9999
2 40143  97.3599 125.3038 0013214 105.5936 309.6907 15.24957021 80387
YAOGAN 22               
1 40275U 14063A   16048.46704949 -.00000044  00000-0  00000+0 0  9992
2 40275 100.3671 165.0690 0006761 102.0748 258.1120 13.15305862 63784
ASNARO                  
1 40298U 14070A   16048.50544590  .00006570  00000-0  31187-3 0  9997
2 40298  97.4410 132.4242 0002002  83.8943  11.7508 15.19583913 71103
HODOYOSHI-1             
1 40299U 14070B   16048.55150928  .00003904  00000-0  17975-3 0  9998
2 40299  97.4365 132.0144 0013894   0.6877  95.6841 15.20817157 71095
CHUBUSAT-1              
1 40300U 14070C   16048.51059185  .00004070  00000-0  19514-3 0  9996
2 40300  97.4336 130.5404 0021608   4.0960  90.9374 15.19270827 71006
QSAT-EOS                
1 40301U 14070D   16048.54610124  .00007924  00000-0  36636-3 0  9991
2 40301  97.4281 129.8053 0030224   2.7083  93.5035 15.20020031 70972
TSUBAME                 
1 40302U 14070E   16048.50444638  .00004172  00000-0  22409-3 0  9998
2 40302  97.4246 126.8393 0041924  11.3940  83.0255 15.14694882 70786
YAOGAN 23               
1 40305U 14071A   16048.47604007  .00004879  00000-0  24342-3 0  9998
2 40305  97.3833 350.8723 0001437  81.8424  27.6306 15.17971955 69747
YAOGAN 24               
1 40310U 14072A   16048.41919423  .00000590  00000-0  91088-4 0  9998
2 40310  97.9522 168.0586 0016711 190.9812 169.1036 14.76910083 67013
CBERS-4                 
1 40336U 14079A   16048.43845868  .00000074  00000-0  40851-4 0  9995
2 40336  98.5018 125.4772 0001674  78.4398 281.6975 14.35441774 62729
RESURS P2               
1 40360U 14087A   16048.45548757  .00001882  00000-0  62109-4 0  9998
2 40360  97.2828 144.2699 0008936 304.8446 121.5077 15.32638866 64013
YAOGAN 26               
1 40362U 14088A   16048.55903003  .00007159  00000-0  27331-3 0  9991
2 40362  97.3963 127.5216 0002431 312.5942 154.0602 15.26948183 63671
SMAP                    
1 40376U 15003A   16048.44058492  .00000297  00000-0  66487-4 0  9997
2 40376  98.1243  57.2703 0000867  55.2191 304.9098 14.63356301 55855
KOMPSAT 3A              
1 40536U 15014A   16048.57426979  .00003509  00000-0  20754-3 0  9995
2 40536  97.5454 349.4511 0010100 222.7805 257.6009 15.12070915 49664
SENTINEL-2A             
1 40697U 15028A   16047.81585251  .00000001  00000-0  17039-4 0  9990
2 40697  98.5651 123.7436 0001230 104.6441 255.4872 14.30819823 34148
CARBONITE 1 (CBNT-1)    
1 40718U 15032D   16048.52618800  .00000297  00000-0  52421-4 0  9996
2 40718  98.0256 300.8194 0015441 256.5238 103.4254 14.74370902 32688
YAOGAN 27               
1 40878U 15040A   16048.48801898 -.00000045  00000-0  00000+0 0  9991
2 40878 100.4670 110.1501 0008119 234.3182 125.7177 13.15946103 22937
LAPAN-A2                
1 40931U 15052B   16048.09599190  .00001007  00000-0  51698-4 0  9992
2 40931   5.9991  98.4096 0012551 207.6110 152.3546 14.76425209 21008
YAOGAN 28               
1 41026U 15064A   16048.43251094  .00007796  00000-0  26746-3 0  9993
2 41026  97.2534 179.5176 0006737 242.8037 204.4636 15.30408448 15479
YAOGAN 29               
1 41038U 15069A   16048.40200515  .00000329  00000-0  49954-4 0  9992
2 41038  97.8495  33.8003 0001727  62.1957 297.9446 14.80268471 12212
JASON-3                 
1 41240U 16002A   16048.37807776  .00000169  00000-0  10000-2 0  9993
2 41240  66.0432  51.1750 0008275 271.8553  88.1499 12.80932652  3927
